STARLINK-31011          
1 58517U 23191K   26068.41310791 -.00000701  00000+0 -16463-4 0  9993
2 58517  42.9999 104.5994 0000844 246.5904 113.4858 15.26744803125433
FLOCK 4G-26             
1 62633U 25009AA  26068.80489479  .00011283  00000+0  42469-3 0  9999
2 62633  97.4054 151.3913 0001988 299.1273  60.9767 15.27281631 63733
